{"type": "FeatureCollection", "features": [ {"type": "Feature", "properties": {"norad_id": 34609, "name": "COSMOS 2251 DEB", "group": "cosmos-2251-debris", "lat": -47.50695189327492, "lon": 89.5854015923757, "alt_km": 726.2741758683906, "timestamp": "2025-12-11T22:43:47.665391+00:00", "meta": {"OBJECT_NAME": "COSMOS 2251 DEB", "OBJECT_ID": "1993-036WE", "EPOCH": "2025-12-11T14:35:06.209664", "MEAN_MOTION": 14.21786633, "ECCENTRICITY": 0.01450049, "INCLINATION": 73.733, "RA_OF_ASC_NODE": 108.7909, "ARG_OF_PERICENTER": 328.464, "MEAN_ANOMALY": 45.5699, "EPHEMERIS_TYPE": 0, "CLASSIFICATION_TYPE": "U", "NORAD_CAT_ID": 34609, "ELEMENT_SET_NO": 999, "REV_AT_EPOCH": 86616, "BSTAR": 0.0012909722, "MEAN_MOTION_DOT": 3.134e-05, "MEAN_MOTION_DDOT": 0}, "tle": {"line1": "1 34609U 93036WE  25345.60771076  .00003134  00000+0  12910-2 0  9991", "line2": "2 34609  73.7330 108.7909 0145004 328.4640  45.5699 14.21786633866168"}}, "geometry": {"type": "Point", "coordinates": [89.5854015923757, -47.50695189327492]}}, {"type": "Feature", "properties": {"norad_id": 34610, "name": "COSMOS 2251 DEB", "group": "cosmos-2251-debris", "lat": 19.379331758577283, "lon": 77.9247566251716, "alt_km": 943.0147412280257, "timestamp": "2025-12-11T22:43:47.665401+00:00", "meta": {"OBJECT_NAME": "COSMOS 2251 DEB", "OBJECT_ID": "1993-036WF", "EPOCH": "2025-12-11T04:55:24.511584", "MEAN_MOTION": 14.07038658, "ECCENTRICITY": 0.01802981, "INCLINATION": 74.0188, "RA_OF_ASC_NODE": 265.0106, "ARG_OF_PERICENTER": 35.9642, "MEAN_ANOMALY": 325.3471, "EPHEMERIS_TYPE": 0, "CLASSIFICATION_TYPE": "U", "NORAD_CAT_ID": 34610, "ELEMENT_SET_NO": 999, "REV_AT_EPOCH": 85538, "BSTAR": 0.0029786906, "MEAN_MOTION_DOT": 5.749e-05, "MEAN_MOTION_DDOT": 0}, "tle": {"line1": "1 34610U 93036WF  25345.20514481  .00005749  00000+0  29787-2 0  9998", "line2": "2 34610  74.0188 265.0106 0180298  35.9642 325.3471 14.07038658855387"}}, "geometry": {"type": "Point", "coordinates": [77.9247566251716, 19.379331758577283]}}, {"type": "Feature", "properties": {"norad_id": 34611, "name": "COSMOS 2251 DEB", "group": "cosmos-2251-debris", "lat": 32.90472994030706, "lon": 113.16196314923548, "alt_km": 665.8237229012038, "timestamp": "2025-12-11T22:43:47.665411+00:00", "meta": {"OBJECT_NAME": "COSMOS 2251 DEB", "OBJECT_ID": "1993-036WG", "EPOCH": "2025-12-11T14:28:22.187712", "MEAN_MOTION": 14.69473176, "ECCENTRICITY": 0.00227654, "INCLINATION": 74.0529, "RA_OF_ASC_NODE": 103.1655, "ARG_OF_PERICENTER": 145.2154, "MEAN_ANOMALY": 230.24, "EPHEMERIS_TYPE": 0, "CLASSIFICATION_TYPE": "U", "NORAD_CAT_ID": 34611, "ELEMENT_SET_NO": 999, "REV_AT_EPOCH": 88374, "BSTAR": 0.0027814356, "MEAN_MOTION_DOT": 0.00016558, "MEAN_MOTION_DDOT": 0}, "tle": {"line1": "1 34611U 93036WG  25345.60303458  .00016558  00000+0  27814-2 0  9992", "line2": "2 34611  74.0529 103.1655 0022765 145.2154 230.2400 14.69473176883748"}}, "geometry": {"type": "Point", "coordinates": [113.16196314923548, 32.90472994030706]}}, {"type": "Feature", "properties": {"norad_id": 34613, "name": "COSMOS 2251 DEB", "group": "cosmos-2251-debris", "lat": -60.91695121875863, "lon": 131.1315605682722, "alt_km": 864.3344867460128, "timestamp": "2025-12-11T22:43:47.665422+00:00", "meta": {"OBJECT_NAME": "COSMOS 2251 DEB", "OBJECT_ID": "1993-036WJ", "EPOCH": "2025-12-11T14:00:56.690208", "MEAN_MOTION": 14.26422253, "ECCENTRICITY": 0.01101476, "INCLINATION": 73.9634, "RA_OF_ASC_NODE": 280.6518, "ARG_OF_PERICENTER": 112.7648, "MEAN_ANOMALY": 67.9016, "EPHEMERIS_TYPE": 0, "CLASSIFICATION_TYPE": "U", "NORAD_CAT_ID": 34613, "ELEMENT_SET_NO": 999, "REV_AT_EPOCH": 86446, "BSTAR": 0.0018464275, "MEAN_MOTION_DOT": 4.714e-05, "MEAN_MOTION_DDOT": 0}, "tle": {"line1": "1 34613U 93036WJ  25345.58398947  .00004714  00000+0  18464-2 0  9990", "line2": "2 34613  73.9634 280.6518 0110147 112.7648  67.9016 14.26422253864462"}}, "geometry": {"type": "Point", "coordinates": [131.1315605682722, -60.91695121875863]}}, {"type": "Feature", "properties": {"norad_id": 34614, "name": "COSMOS 2251 DEB", "group": "cosmos-2251-debris", "lat": -3.3447251098828508, "lon": 166.27888498605137, "alt_km": 966.7429570679169, "timestamp": "2025-12-11T22:43:47.665432+00:00", "meta": {"OBJECT_NAME": "COSMOS 2251 DEB", "OBJECT_ID": "1993-036WK", "EPOCH": "2025-12-10T19:00:31.759200", "MEAN_MOTION": 14.17409998, "ECCENTRICITY": 0.01978528, "INCLINATION": 73.8731, "RA_OF_ASC_NODE": 347.3883, "ARG_OF_PERICENTER": 341.6189, "MEAN_ANOMALY": 71.0573, "EPHEMERIS_TYPE": 0, "CLASSIFICATION_TYPE": "U", "NORAD_CAT_ID": 34614, "ELEMENT_SET_NO": 999, "REV_AT_EPOCH": 84739, "BSTAR": 0.0092988645, "MEAN_MOTION_DOT": 0.00022874, "MEAN_MOTION_DDOT": 0}, "tle": {"line1": "1 34614U 93036WK  25344.79203425  .00022874  00000+0  92989-2 0  9990", "line2": "2 34614  73.8731 347.3883 0197852 341.6189  71.0573 14.17409998847395"}}, "geometry": {"type": "Point", "coordinates": [166.27888498605137, -3.3447251098828508]}}, {"type": "Feature", "properties": {"norad_id": 34615, "name": "COSMOS 2251 DEB", "group": "cosmos-2251-debris", "lat": -73.86084904355927, "lon": -162.20375062201617, "alt_km": 935.5137835641735, "timestamp": "2025-12-11T22:43:47.665443+00:00", "meta": {"OBJECT_NAME": "COSMOS 2251 DEB", "OBJECT_ID": "1993-036WL", "EPOCH": "2025-12-11T15:13:30.717120", "MEAN_MOTION": 13.52202046, "ECCENTRICITY": 0.04013404, "INCLINATION": 74.005, "RA_OF_ASC_NODE": 295.914, "ARG_OF_PERICENTER": 203.3816, "MEAN_ANOMALY": 338.769, "EPHEMERIS_TYPE": 0, "CLASSIFICATION_TYPE": "U", "NORAD_CAT_ID": 34615, "ELEMENT_SET_NO": 999, "REV_AT_EPOCH": 82800, "BSTAR": 0.00021166372, "MEAN_MOTION_DOT": 2.1e-06, "MEAN_MOTION_DDOT": 0}, "tle": {"line1": "1 34615U 93036WL  25345.63438330  .00000210  00000+0  21166-3 0  9990", "line2": "2 34615  74.0050 295.9140 0401340 203.3816 338.7690 13.52202046828001"}}, "geometry": {"type": "Point", "coordinates": [-162.20375062201617, -73.86084904355927]}}, {"type": "Feature", "properties": {"norad_id": 34619, "name": "COSMOS 2251 DEB", "group": "cosmos-2251-debris", "lat": -29.108974226012528, "lon": 30.629139369151005, "alt_km": 678.713117823926, "timestamp": "2025-12-11T22:43:47.665453+00:00", "meta": {"OBJECT_NAME": "COSMOS 2251 DEB", "OBJECT_ID": "1993-036WQ", "EPOCH": "2025-12-11T07:00:35.437248", "MEAN_MOTION": 14.64640802, "ECCENTRICITY": 0.0094699, "INCLINATION": 74.0441, "RA_OF_ASC_NODE": 202.721, "ARG_OF_PERICENTER": 297.92, "MEAN_ANOMALY": 61.2403, "EPHEMERIS_TYPE": 0, "CLASSIFICATION_TYPE": "U", "NORAD_CAT_ID": 34619, "ELEMENT_SET_NO": 999, "REV_AT_EPOCH": 89277, "BSTAR": 0.00036676279, "MEAN_MOTION_DOT": 2.048e-05, "MEAN_MOTION_DDOT": 0}, "tle": {"line1": "1 34619U 93036WQ  25345.29207682  .00002048  00000+0  36676-3 0  9993", "line2": "2 34619  74.0441 202.7210 0094699 297.9200  61.2403 14.64640802892779"}}, "geometry": {"type": "Point", "coordinates": [30.629139369151005, -29.108974226012528]}}, {"type": "Feature", "properties": {"norad_id": 34620, "name": "COSMOS 2251 DEB", "group": "cosmos-2251-debris", "lat": 44.80737345024582, "lon": 24.515497877814653, "alt_km": 756.9940301978295, "timestamp": "2025-12-11T22:43:47.665464+00:00", "meta": {"OBJECT_NAME": "COSMOS 2251 DEB", "OBJECT_ID": "1993-036WR", "EPOCH": "2025-12-11T02:13:42.946752", "MEAN_MOTION": 14.49056132, "ECCENTRICITY": 0.00809081, "INCLINATION": 74.0509, "RA_OF_ASC_NODE": 222.6176, "ARG_OF_PERICENTER": 259.4219, "MEAN_ANOMALY": 99.7819, "EPHEMERIS_TYPE": 0, "CLASSIFICATION_TYPE": "U", "NORAD_CAT_ID": 34620, "ELEMENT_SET_NO": 999, "REV_AT_EPOCH": 86803, "BSTAR": 0.0032771066, "MEAN_MOTION_DOT": 0.00012967, "MEAN_MOTION_DDOT": 0}, "tle": {"line1": "1 34620U 93036WR  25345.09285818  .00012967  00000+0  32771-2 0  9992", "line2": "2 34620  74.0509 222.6176 0080908 259.4219  99.7819 14.49056132868038"}}, "geometry": {"type": "Point", "coordinates": [24.515497877814653, 44.80737345024582]}}, {"type": "Feature", "properties": {"norad_id": 34622, "name": "COSMOS 2251 DEB", "group": "cosmos-2251-debris", "lat": -27.043230974037257, "lon": 136.8327984941752, "alt_km": 898.8162630507431, "timestamp": "2025-12-11T22:43:47.665474+00:00", "meta": {"OBJECT_NAME": "COSMOS 2251 DEB", "OBJECT_ID": "1993-036WT", "EPOCH": "2025-12-11T15:49:03.387936", "MEAN_MOTION": 14.22038655, "ECCENTRICITY": 0.01043299, "INCLINATION": 74.0428, "RA_OF_ASC_NODE": 308.9508, "ARG_OF_PERICENTER": 31.6605, "MEAN_ANOMALY": 142.5464, "EPHEMERIS_TYPE": 0, "CLASSIFICATION_TYPE": "U", "NORAD_CAT_ID": 34622, "ELEMENT_SET_NO": 999, "REV_AT_EPOCH": 86444, "BSTAR": 0.0014636071, "MEAN_MOTION_DOT": 3.397e-05, "MEAN_MOTION_DDOT": 0}, "tle": {"line1": "1 34622U 93036WT  25345.65906699  .00003397  00000+0  14636-2 0  9990", "line2": "2 34622  74.0428 308.9508 0104329  31.6605 142.5464 14.22038655864445"}}, "geometry": {"type": "Point", "coordinates": [136.8327984941752, -27.043230974037257]}}, {"type": "Feature", "properties": {"norad_id": 34626, "name": "COSMOS 2251 DEB", "group": "cosmos-2251-debris", "lat": -64.40815570276996, "lon": -177.89601041885467, "alt_km": 678.9076145947811, "timestamp": "2025-12-11T22:43:47.665484+00:00", "meta": {"OBJECT_NAME": "COSMOS 2251 DEB", "OBJECT_ID": "1993-036WX", "EPOCH": "2025-12-11T15:37:02.277984", "MEAN_MOTION": 14.72174008, "ECCENTRICITY": 0.00264929, "INCLINATION": 74.0486, "RA_OF_ASC_NODE": 326.0113, "ARG_OF_PERICENTER": 54.5608, "MEAN_ANOMALY": 65.2067, "EPHEMERIS_TYPE": 0, "CLASSIFICATION_TYPE": "U", "NORAD_CAT_ID": 34626, "ELEMENT_SET_NO": 999, "REV_AT_EPOCH": 89128, "BSTAR": 0.0015458461, "MEAN_MOTION_DOT": 9.779e-05, "MEAN_MOTION_DDOT": 0}, "tle": {"line1": "1 34626U 93036WX  25345.65072081  .00009779  00000+0  15458-2 0  9996", "line2": "2 34626  74.0486 326.0113 0026492  54.5608  65.2067 14.72174008891287"}}, "geometry": {"type": "Point", "coordinates": [-177.89601041885467, -64.40815570276996]}}]}